{
  "type": "FeatureCollection",
  "features": [
    {
      "type": "Feature",
      "properties": {
        "norad_id": 33805,
        "name": "COSMOS 2251 DEB",
        "group": "cosmos-2251-debris",
        "lat": 52.6819827133279,
        "lon": 115.2038412386741,
        "alt_km": 655.5307653618738,
        "timestamp": "2025-12-09T14:52:26.555015+00:00",
        "meta_object_name": "COSMOS 2251 DEB",
        "meta_object_id": "1993-036AW",
        "meta_epoch": "2025-12-09T07:43:09.945696",
        "meta_mean_motion": 14.57844243,
        "meta_eccentricity": 0.00603137,
        "meta_inclination": 74.0318,
        "meta_ra_of_asc_node": 317.8334,
        "meta_arg_of_pericenter": 147.802,
        "meta_mean_anomaly": 212.6851,
        "meta_ephemeris_type": 0,
        "meta_classification_type": "U",
        "meta_norad_cat_id": 33805,
        "meta_element_set_no": 999,
        "meta_rev_at_epoch": 89177,
        "meta_bstar": 0.00043820781,
        "meta_mean_motion_dot": 2.027e-05,
        "meta_mean_motion_ddot": 0,
        "tle_line1": "1 33805U 93036AW  25343.32164289  .00002027  00000+0  43821-3 0  9993",
        "tle_line2": "2 33805  74.0318 317.8334 0060313 147.8020 212.6851 14.57844243891777"
      },
      "geometry": {
        "type": "Point",
        "coordinates": [
          115.2038412386741,
          52.6819827133279
        ]
      }
    },
    {
      "type": "Feature",
      "properties": {
        "norad_id": 33811,
        "name": "COSMOS 2251 DEB",
        "group": "cosmos-2251-debris",
        "lat": -1.4483421255985138,
        "lon": 129.54658814410396,
        "alt_km": 572.7087242786056,
        "timestamp": "2025-12-09T14:52:26.555026+00:00",
        "meta_object_name": "COSMOS 2251 DEB",
        "meta_object_id": "1993-036BC",
        "meta_epoch": "2025-12-09T08:12:14.549184",
        "meta_mean_motion": 15.05092944,
        "meta_eccentricity": 0.00307529,
        "meta_inclination": 73.8382,
        "meta_ra_of_asc_node": 309.7024,
        "meta_arg_of_pericenter": 30.8309,
        "meta_mean_anomaly": 85.1708,
        "meta_ephemeris_type": 0,
        "meta_classification_type": "U",
        "meta_norad_cat_id": 33811,
        "meta_element_set_no": 999,
        "meta_rev_at_epoch": 89967,
        "meta_bstar": 0.0016735446,
        "meta_mean_motion_dot": 0.00024104,
        "meta_mean_motion_ddot": 0,
        "tle_line1": "1 33811U 93036BC  25343.34183506  .00024104  00000+0  16735-2 0  9998",
        "tle_line2": "2 33811  73.8382 309.7024 0030752  30.8309  85.1708 15.05092944899671"
      },
      "geometry": {
        "type": "Point",
        "coordinates": [
          129.54658814410396,
          -1.4483421255985138
        ]
      }
    },
    {
      "type": "Feature",
      "properties": {
        "norad_id": 33815,
        "name": "COSMOS 2251 DEB",
        "group": "cosmos-2251-debris",
        "lat": 62.92901079642767,
        "lon": -31.144038016085513,
        "alt_km": 509.87826754548223,
        "timestamp": "2025-12-09T14:52:26.555037+00:00",
        "meta_object_name": "COSMOS 2251 DEB",
        "meta_object_id": "1993-036BG",
        "meta_epoch": "2025-12-09T00:41:33.448704",
        "meta_mean_motion": 15.1666065,
        "meta_eccentricity": 0.00028567,
        "meta_inclination": 73.9532,
        "meta_ra_of_asc_node": 184.3694,
        "meta_arg_of_pericenter": 229.719,
        "meta_mean_anomaly": 257.3256,
        "meta_ephemeris_type": 0,
        "meta_classification_type": "U",
        "meta_norad_cat_id": 33815,
        "meta_element_set_no": 999,
        "meta_rev_at_epoch": 88314,
        "meta_bstar": 0.0065404608,
        "meta_mean_motion_dot": 0.00130361,
        "meta_mean_motion_ddot": 0,
        "tle_line1": "1 33815U 93036BG  25343.02885936  .00130361  00000+0  65405-2 0  9994",
        "tle_line2": "2 33815  73.9532 184.3694 0002856 229.7190 257.3256 15.16660650883147"
      },
      "geometry": {
        "type": "Point",
        "coordinates": [
          -31.144038016085513,
          62.92901079642767
        ]
      }
    },
    {
      "type": "Feature",
      "properties": {
        "norad_id": 33816,
        "name": "COSMOS 2251 DEB",
        "group": "cosmos-2251-debris",
        "lat": 49.97178197621945,
        "lon": 130.80315681731182,
        "alt_km": 885.7913236837021,
        "timestamp": "2025-12-09T14:52:26.555047+00:00",
        "meta_object_name": "COSMOS 2251 DEB",
        "meta_object_id": "1993-036BH",
        "meta_epoch": "2025-12-08T19:30:15.806880",
        "meta_mean_motion": 13.81776004,
        "meta_eccentricity": 0.02649297,
        "meta_inclination": 73.8945,
        "meta_ra_of_asc_node": 112.0515,
        "meta_arg_of_pericenter": 125.7474,
        "meta_mean_anomaly": 236.8604,
        "meta_ephemeris_type": 0,
        "meta_classification_type": "U",
        "meta_norad_cat_id": 33816,
        "meta_element_set_no": 999,
        "meta_rev_at_epoch": 84619,
        "meta_bstar": 0.00097318108,
        "meta_mean_motion_dot": 1.339e-05,
        "meta_mean_motion_ddot": 0,
        "tle_line1": "1 33816U 93036BH  25342.81268295  .00001339  00000+0  97318-3 0  9995",
        "tle_line2": "2 33816  73.8945 112.0515 0264929 125.7474 236.8604 13.81776004846190"
      },
      "geometry": {
        "type": "Point",
        "coordinates": [
          130.80315681731182,
          49.97178197621945
        ]
      }
    },
    {
      "type": "Feature",
      "properties": {
        "norad_id": 33818,
        "name": "COSMOS 2251 DEB",
        "group": "cosmos-2251-debris",
        "lat": 54.11212957689403,
        "lon": -164.07026937531444,
        "alt_km": 529.3689049231534,
        "timestamp": "2025-12-09T14:52:26.555058+00:00",
        "meta_object_name": "COSMOS 2251 DEB",
        "meta_object_id": "1993-036BK",
        "meta_epoch": "2025-12-09T07:27:10.351872",
        "meta_mean_motion": 15.12068797,
        "meta_eccentricity": 0.00279729,
        "meta_inclination": 74.0755,
        "meta_ra_of_asc_node": 173.327,
        "meta_arg_of_pericenter": 163.3947,
        "meta_mean_anomaly": 11.8958,
        "meta_ephemeris_type": 0,
        "meta_classification_type": "U",
        "meta_norad_cat_id": 33818,
        "meta_element_set_no": 999,
        "meta_rev_at_epoch": 89810,
        "meta_bstar": 0.0028495738,
        "meta_mean_motion_dot": 0.00049796,
        "meta_mean_motion_ddot": 0,
        "tle_line1": "1 33818U 93036BK  25343.31053648  .00049796  00000+0  28496-2 0  9996",
        "tle_line2": "2 33818  74.0755 173.3270 0027972 163.3947  11.8958 15.12068797898100"
      },
      "geometry": {
        "type": "Point",
        "coordinates": [
          -164.07026937531444,
          54.11212957689403
        ]
      }
    },
    {
      "type": "Feature",
      "properties": {
        "norad_id": 33819,
        "name": "COSMOS 2251 DEB",
        "group": "cosmos-2251-debris",
        "lat": -0.5250273411865685,
        "lon": -144.6595829087754,
        "alt_km": 773.4909371840231,
        "timestamp": "2025-12-09T14:52:26.555075+00:00",
        "meta_object_name": "COSMOS 2251 DEB",
        "meta_object_id": "1993-036BL",
        "meta_epoch": "2025-12-09T02:12:34.695072",
        "meta_mean_motion": 14.3220226,
        "meta_eccentricity": 0.00889511,
        "meta_inclination": 74.179,
        "meta_ra_of_asc_node": 216.4434,
        "meta_arg_of_pericenter": 78.8797,
        "meta_mean_anomaly": 82.0875,
        "meta_ephemeris_type": 0,
        "meta_classification_type": "U",
        "meta_norad_cat_id": 33819,
        "meta_element_set_no": 999,
        "meta_rev_at_epoch": 87443,
        "meta_bstar": 0.00079293195,
        "meta_mean_motion_dot": 2.208e-05,
        "meta_mean_motion_ddot": 0,
        "tle_line1": "1 33819U 93036BL  25343.09206823  .00002208  00000+0  79293-3 0  9996",
        "tle_line2": "2 33819  74.1790 216.4434 0088951  78.8797  82.0875 14.32202260874433"
      },
      "geometry": {
        "type": "Point",
        "coordinates": [
          -144.6595829087754,
          -0.5250273411865685
        ]
      }
    },
    {
      "type": "Feature",
      "properties": {
        "norad_id": 33821,
        "name": "COSMOS 2251 DEB",
        "group": "cosmos-2251-debris",
        "lat": 67.87980994422708,
        "lon": -165.77422222276047,
        "alt_km": 495.5405406460195,
        "timestamp": "2025-12-09T14:52:26.555085+00:00",
        "meta_object_name": "COSMOS 2251 DEB",
        "meta_object_id": "1993-036BN",
        "meta_epoch": "2025-12-09T03:31:28.570080",
        "meta_mean_motion": 15.24968538,
        "meta_eccentricity": 0.00527769,
        "meta_inclination": 74.0299,
        "meta_ra_of_asc_node": 150.4306,
        "meta_arg_of_pericenter": 184.8264,
        "meta_mean_anomaly": 175.2435,
        "meta_ephemeris_type": 0,
        "meta_classification_type": "U",
        "meta_norad_cat_id": 33821,
        "meta_element_set_no": 999,
        "meta_rev_at_epoch": 74946,
        "meta_bstar": 0.0015242397,
        "meta_mean_motion_dot": 0.0003972,
        "meta_mean_motion_ddot": 0,
        "tle_line1": "1 33821U 93036BN  25343.14685845  .00039720  00000+0  15242-2 0  9992",
        "tle_line2": "2 33821  74.0299 150.4306 0052776 184.8264 175.2435 15.24968538749467"
      },
      "geometry": {
        "type": "Point",
        "coordinates": [
          -165.77422222276047,
          67.87980994422708
        ]
      }
    }
  ]
}